{
  "type": "FeatureCollection",
  "features": [
    {
      "type": "Feature",
      "properties": {
        "norad_id": 34350,
        "name": "IRIDIUM 33 DEB",
        "group": "iridium-33-debris",
        "lat": -60.84781206991809,
        "lon": -169.78466476706444,
        "alt_km": 750.8378991390146,
        "timestamp": "2025-12-10T21:43:22.475862+00:00",
        "meta_object_name": "IRIDIUM 33 DEB",
        "meta_object_id": "1997-051ES",
        "meta_epoch": "2025-12-10T12:52:02.617824",
        "meta_mean_motion": 14.45379057,
        "meta_eccentricity": 0.00226247,
        "meta_inclination": 86.3276,
        "meta_ra_of_asc_node": 3.7635,
        "meta_arg_of_pericenter": 142.0341,
        "meta_mean_anomaly": 339.995,
        "meta_ephemeris_type": 0,
        "meta_classification_type": "U",
        "meta_norad_cat_id": 34350,
        "meta_element_set_no": 999,
        "meta_rev_at_epoch": 88261,
        "meta_bstar": 0.00047544154,
        "meta_mean_motion_dot": 1.696e-05,
        "meta_mean_motion_ddot": 0,
        "tle_line1": "1 34350U 97051ES  25344.53614141  .00001696  00000+0  47544-3 0  9998",
        "tle_line2": "2 34350  86.3276   3.7635 0022624 142.0341 339.9950 14.45379057882612"
      },
      "geometry": {
        "type": "Point",
        "coordinates": [
          -169.78466476706444,
          -60.84781206991809
        ]
      }
    },
    {
      "type": "Feature",
      "properties": {
        "norad_id": 34366,
        "name": "IRIDIUM 33 DEB",
        "group": "iridium-33-debris",
        "lat": 28.238393778149042,
        "lon": -131.84324585456616,
        "alt_km": 695.6315137278516,
        "timestamp": "2025-12-10T21:43:22.475872+00:00",
        "meta_object_name": "IRIDIUM 33 DEB",
        "meta_object_id": "1997-051FJ",
        "meta_epoch": "2025-12-10T04:47:12.333120",
        "meta_mean_motion": 14.54021911,
        "meta_eccentricity": 0.0022308,
        "meta_inclination": 86.3691,
        "meta_ra_of_asc_node": 50.4179,
        "meta_arg_of_pericenter": 147.6537,
        "meta_mean_anomaly": 272.451,
        "meta_ephemeris_type": 0,
        "meta_classification_type": "U",
        "meta_norad_cat_id": 34366,
        "meta_element_set_no": 999,
        "meta_rev_at_epoch": 88145,
        "meta_bstar": 0.0016468,
        "meta_mean_motion_dot": 6.988e-05,
        "meta_mean_motion_ddot": 0,
        "tle_line1": "1 34366U 97051FJ  25344.19944830  .00006988  00000+0  16468-2 0  9997",
        "tle_line2": "2 34366  86.3691  50.4179 0022308 147.6537 272.4510 14.54021911881456"
      },
      "geometry": {
        "type": "Point",
        "coordinates": [
          -131.84324585456616,
          28.238393778149042
        ]
      }
    },
    {
      "type": "Feature",
      "properties": {
        "norad_id": 34375,
        "name": "IRIDIUM 33 DEB",
        "group": "iridium-33-debris",
        "lat": -55.23654832394971,
        "lon": 178.28138002884177,
        "alt_km": 912.9603092751813,
        "timestamp": "2025-12-10T21:43:22.475886+00:00",
        "meta_object_name": "IRIDIUM 33 DEB",
        "meta_object_id": "1997-051FT",
        "meta_epoch": "2025-12-10T07:35:27.786048",
        "meta_mean_motion": 14.17985501,
        "meta_eccentricity": 0.0103124,
        "meta_inclination": 86.4328,
        "meta_ra_of_asc_node": 183.6751,
        "meta_arg_of_pericenter": 134.3251,
        "meta_mean_anomaly": 46.2443,
        "meta_ephemeris_type": 0,
        "meta_classification_type": "U",
        "meta_norad_cat_id": 34375,
        "meta_element_set_no": 999,
        "meta_rev_at_epoch": 86677,
        "meta_bstar": 0.00060254,
        "meta_mean_motion_dot": 1.319e-05,
        "meta_mean_motion_ddot": 0,
        "tle_line1": "1 34375U 97051FT  25344.31629382  .00001319  00000+0  60254-3 0  9999",
        "tle_line2": "2 34375  86.4328 183.6751 0103124 134.3251  46.2443 14.17985501866774"
      },
      "geometry": {
        "type": "Point",
        "coordinates": [
          178.28138002884177,
          -55.23654832394971
        ]
      }
    },
    {
      "type": "Feature",
      "properties": {
        "norad_id": 34376,
        "name": "IRIDIUM 33 DEB",
        "group": "iridium-33-debris",
        "lat": 22.686528148952156,
        "lon": 8.915052512628208,
        "alt_km": 701.2306801975446,
        "timestamp": "2025-12-10T21:43:22.475897+00:00",
        "meta_object_name": "IRIDIUM 33 DEB",
        "meta_object_id": "1997-051FU",
        "meta_epoch": "2025-12-10T11:45:58.663584",
        "meta_mean_motion": 14.62514696,
        "meta_eccentricity": 0.00269271,
        "meta_inclination": 86.2989,
        "meta_ra_of_asc_node": 7.5509,
        "meta_arg_of_pericenter": 174.2059,
        "meta_mean_anomaly": 185.9469,
        "meta_ephemeris_type": 0,
        "meta_classification_type": "U",
        "meta_norad_cat_id": 34376,
        "meta_element_set_no": 999,
        "meta_rev_at_epoch": 87974,
        "meta_bstar": 0.0021547736,
        "meta_mean_motion_dot": 0.0001101,
        "meta_mean_motion_ddot": 0,
        "tle_line1": "1 34376U 97051FU  25344.49026231  .00011010  00000+0  21548-2 0  9994",
        "tle_line2": "2 34376  86.2989   7.5509 0026927 174.2059 185.9469 14.62514696879748"
      },
      "geometry": {
        "type": "Point",
        "coordinates": [
          8.915052512628208,
          22.686528148952156
        ]
      }
    },
    {
      "type": "Feature",
      "properties": {
        "norad_id": 34486,
        "name": "IRIDIUM 33 DEB",
        "group": "iridium-33-debris",
        "lat": 20.403923919161713,
        "lon": 14.215430502798169,
        "alt_km": 581.7762086552984,
        "timestamp": "2025-12-10T21:43:22.475907+00:00",
        "meta_object_name": "IRIDIUM 33 DEB",
        "meta_object_id": "1997-051GB",
        "meta_epoch": "2025-12-10T12:34:52.076640",
        "meta_mean_motion": 14.95631974,
        "meta_eccentricity": 0.00134896,
        "meta_inclination": 86.3938,
        "meta_ra_of_asc_node": 13.0469,
        "meta_arg_of_pericenter": 119.9859,
        "meta_mean_anomaly": 11.1663,
        "meta_ephemeris_type": 0,
        "meta_classification_type": "U",
        "meta_norad_cat_id": 34486,
        "meta_element_set_no": 999,
        "meta_rev_at_epoch": 88953,
        "meta_bstar": 0.0031930379,
        "meta_mean_motion_dot": 0.00035691,
        "meta_mean_motion_ddot": 0,
        "tle_line1": "1 34486U 97051GB  25344.52421385  .00035691  00000+0  31930-2 0  9996",
        "tle_line2": "2 34486  86.3938  13.0469 0013489 119.9859  11.1663 14.95631974889534"
      },
      "geometry": {
        "type": "Point",
        "coordinates": [
          14.215430502798169,
          20.403923919161713
        ]
      }
    },
    {
      "type": "Feature",
      "properties": {
        "norad_id": 34487,
        "name": "IRIDIUM 33 DEB",
        "group": "iridium-33-debris",
        "lat": 21.946505769070185,
        "lon": 14.643777225566675,
        "alt_km": 756.3379487443344,
        "timestamp": "2025-12-10T21:43:22.475918+00:00",
        "meta_object_name": "IRIDIUM 33 DEB",
        "meta_object_id": "1997-051GC",
        "meta_epoch": "2025-12-10T01:47:16.386144",
        "meta_mean_motion": 14.4321077,
        "meta_eccentricity": 0.00325626,
        "meta_inclination": 86.3436,
        "meta_ra_of_asc_node": 13.5248,
        "meta_arg_of_pericenter": 136.7627,
        "meta_mean_anomaly": 252.8644,
        "meta_ephemeris_type": 0,
        "meta_classification_type": "U",
        "meta_norad_cat_id": 34487,
        "meta_element_set_no": 999,
        "meta_rev_at_epoch": 88210,
        "meta_bstar": 0.00027422216,
        "meta_mean_motion_dot": 9.48e-06,
        "meta_mean_motion_ddot": 0,
        "tle_line1": "1 34487U 97051GC  25344.07449521  .00000948  00000+0  27422-3 0  9998",
        "tle_line2": "2 34487  86.3436  13.5248 0032562 136.7627 252.8644 14.43210770882100"
      },
      "geometry": {
        "type": "Point",
        "coordinates": [
          14.643777225566675,
          21.946505769070185
        ]
      }
    },
    {
      "type": "Feature",
      "properties": {
        "norad_id": 34488,
        "name": "IRIDIUM 33 DEB",
        "group": "iridium-33-debris",
        "lat": 35.46412213760379,
        "lon": 124.0979390527662,
        "alt_km": 477.54992972548916,
        "timestamp": "2025-12-10T21:43:22.475928+00:00",
        "meta_object_name": "IRIDIUM 33 DEB",
        "meta_object_id": "1997-051GD",
        "meta_epoch": "2025-12-10T14:48:36.946656",
        "meta_mean_motion": 15.28578771,
        "meta_eccentricity": 0.00138013,
        "meta_inclination": 86.3253,
        "meta_ra_of_asc_node": 306.8644,
        "meta_arg_of_pericenter": 55.1759,
        "meta_mean_anomaly": 305.0785,
        "meta_ephemeris_type": 0,
        "meta_classification_type": "U",
        "meta_norad_cat_id": 34488,
        "meta_element_set_no": 999,
        "meta_rev_at_epoch": 89207,
        "meta_bstar": 0.0066251858,
        "meta_mean_motion_dot": 0.00188937,
        "meta_mean_motion_ddot": 0,
        "tle_line1": "1 34488U 97051GD  25344.61709429  .00188937  00000+0  66252-2 0  9993",
        "tle_line2": "2 34488  86.3253 306.8644 0013801  55.1759 305.0785 15.28578771892077"
      },
      "geometry": {
        "type": "Point",
        "coordinates": [
          124.0979390527662,
          35.46412213760379
        ]
      }
    }
  ]
}